GLOBALSTAR M085 [+]     
1 37742U 11033D   17345.94367411 -.00000093  00000-0  58867-4 0  9997
2 37742  51.9876 301.3053 0000534  32.2935   8.4821 12.62262457297460
